{"5870826107": [{"highway": "stop"}, [-122.46403960000492, 37.743692400679215]], "57851224": [{"highway": "stop"}, [-122.33949589999983, 37.92446730000005]], "65368084": [{"highway": "stop"}, [-122.46195450000008, 37.771948999999616]], "65513494": [{"highway": "stop"}, [-122.42315290000046, 37.645205699999764]], "65284119": [{"highway": "stop"}, [-122.40114159999996, 37.721655999999996]], "2470221848": [{"highway": "stop"}, [-122.47419779999719, 37.88615090002072]], "65343521": [{"highway": "stop"}, [-122.3886730000001, 37.72704399999995]], "65343523": [{"highway": "stop"}, [-122.3905470000001, 37.72809899999995]], "2482929329": [{"highway": "stop"}, [-122.47451579999719, 37.78623560002074]], "4025608236": [{"highway": "stop"}, [-122.46682440000673, 37.767899400678495]], "4412500026": [{"highway": "stop"}, [-122.44379590000541, 37.77041790067806]], "4412500027": [{"highway": "stop"}, [-122.44364440000541, 37.770336700678065]], "4412500028": [{"highway": "stop"}, [-122.4436809000054, 37.77053320067807]], "1971089469": [{"highway": "stop"}, [-122.42397939999776, 37.751824200018326]], "4561610814": [{"highway": "stop"}, [-122.43965230000474, 37.73162970067816]], "4561610815": [{"highway": "stop"}, [-122.43975150000473, 37.731709500678164]], "1971089472": [{"highway": "stop"}, [-122.41945609999776, 37.75218600001833]], "65325121": [{"highway": "stop"}, [-122.38583500000006, 37.73960899999974]], "1971089474": [{"highway": "stop"}, [-122.42158669999776, 37.751962100018325]], "65325123": [{"highway": "stop"}, [-122.38639900000005, 37.73898299999974]], "1971089476": [{"highway": "stop"}, [-122.42399669999776, 37.75199590001832]], "1971089479": [{"highway": "stop"}, [-122.41967489999776, 37.75217410001832]], "1971089481": [{"highway": "stop"}, [-122.41956209999776, 37.75209130001832]], "1971089483": [{"highway": "stop"}, [-122.42159689999777, 37.75214340001832]], "2470221901": [{"highway": "stop"}, [-122.49196919999719, 37.895999500020736]], "65292366": [{"highway": "stop"}, [-122.39132230000006, 37.720978799999976]], "65292373": [{"highway": "stop"}, [-122.39241800000005, 37.71973999999998]], "65292375": [{"highway": "stop"}, [-122.39298200000005, 37.71911399999998]], "65327192": [{"turn_restrictions": "no", "highway": "stop"}, [-122.42292109999988, 37.80156439999979]], "65323108": [{"highway": "stop"}, [-122.47827510000013, 37.765925099999734]], "2206234733": [{"highway": "stop"}, [-122.51550259999702, 37.90196340001974]], "4564818030": [{"highway": "stop"}, [-122.44464810000476, 37.799754100678165]], "4564818031": [{"highway": "stop"}, [-122.44451210000476, 37.79968030067816]], "4564818032": [{"highway": "stop"}, [-122.44441790000475, 37.799783300678165]], "4564818033": [{"highway": "stop"}, [-122.44454940000475, 37.79986510067816]], "5686843506": [{"highway": "stop"}, [-122.46244170000485, 37.77186990067907]], "5686843507": [{"highway": "stop"}, [-122.46181670000485, 37.77173860067907]], "5686843508": [{"highway": "stop"}, [-122.46586020000484, 37.77286290067907]], "2470222060": [{"highway": "stop"}, [-122.50587989999723, 37.918363400020745]], "65364086": [{"highway": "stop"}, [-122.37620630000016, 37.8254460999997]], "5686843511": [{"highway": "stop"}, [-122.46649500000484, 37.772368100679074]], "5686843512": [{"highway": "stop"}, [-122.46692000000485, 37.772561500679075]], "5686843513": [{"highway": "stop"}, [-122.46810470000484, 37.77251430067908]], "5686843514": [{"highway": "stop"}, [-122.47068080000484, 37.77128630067908]], "5686843515": [{"highway": "stop"}, [-122.47972410000484, 37.77056840067908]], "5686843516": [{"highway": "stop"}, [-122.48008580000484, 37.77068260067908]], "5686843517": [{"highway": "stop"}, [-122.48020030000484, 37.77039610067908]], "5686843518": [{"highway": "stop"}, [-122.47977200000484, 37.77029910067908]], "5686843509": [{"highway": "stop"}, [-122.46607660000484, 37.77260120067907]], "5686843520": [{"highway": "stop"}, [-122.46974880000485, 37.769367700679084]], "65282185": [{"highway": "stop"}, [-122.40488069999995, 37.76853600000001]], "65319054": [{"highway": "stop"}, [-122.43095160000009, 37.7995879999998]], "65405076": [{"highway": "stop"}, [-122.32137090000003, 37.56267839999963]], "3877628461": [{"highway": "stop"}, [-122.3786591000058, 37.58505910053475]], "4103460266": [{"highway": "stop"}, [-122.347508100006, 37.92962990067868]], "904988835": [{"highway": "stop"}, [-122.45567349999963, 37.650626000000116]], "65337509": [{"highway": "stop"}, [-122.42924900000015, 37.722026000000014]], "65339561": [{"highway": "stop"}, [-122.4692661000001, 37.770188199999936]], "4547291310": [{"highway": "stop"}, [-122.41951940000497, 37.771001200678114]], "65392821": [{"highway": "stop"}, [-122.34473259999993, 37.57792659999956]], "65392825": [{"highway": "stop"}, [-122.34667199999994, 37.57657449999956]], "65353941": [{"highway": "stop"}, [-122.42322930000009, 37.74069979999979]], "3390505177": [{"highway": "stop"}, [-122.48822100000501, 37.636478900505956]], "1211324640": [{"highway": "stop"}, [-122.46956609999897, 37.76917710000052]], "267053289": [{"highway": "stop"}, [-122.4419699999999, 37.66361019999969]], "1976559852": [{"direction": "backward", "highway": "stop"}, [-122.42696569999775, 37.75655320001831]], "1976559855": [{"highway": "stop"}, [-122.42675279999776, 37.75495560001831]], "2007343345": [{"direction": "forward", "highway": "stop"}, [-122.4175358999978, 37.75399870001827]], "110377202": [{"highway": "stop"}, [-122.53453190000027, 37.893061599999754]], "2007343347": [{"direction": "backward", "highway": "stop"}, [-122.4154456999978, 37.754031100018274]], "1976559860": [{"highway": "stop"}, [-122.42654209999776, 37.75496750001831]], "1975378165": [{"highway": "stop"}, [-122.42222169999779, 37.747183100018326]], "65437942": [{"source": "Yahoo", "highway": "stop"}, [-122.42404549999985, 37.65521439999954]], "1976559863": [{"highway": "stop"}, [-122.42554789999777, 37.75655480001831]], "1975378168": [{"highway": "stop"}, [-122.42257859999779, 37.74475050001833]], "1976559865": [{"highway": "stop"}, [-122.42648719999777, 37.75345450001831]], "65302778": [{"highway": "stop"}, [-122.46416049999983, 37.779104399999994]], "1976559867": [{"highway": "stop"}, [-122.42542059999776, 37.75664660001831]], "2007343356": [{"direction": "backward", "highway": "stop"}, [-122.41300599999778, 37.752483800018275]], "2007343357": [{"direction": "forward", "highway": "stop"}, [-122.41519829999778, 37.752531700018274]], "1976559870": [{"highway": "stop"}, [-122.42583259999776, 37.75662170001831]], "2007343359": [{"direction": "forward", "highway": "stop"}, [-122.41289729999778, 37.75257830001828]], "1976559872": [{"highway": "stop"}, [-122.42638119999776, 37.75336580001831]], "1976559874": [{"direction": "forward", "highway": "stop"}, [-122.42682759999776, 37.75656160001831]], "1976559877": [{"highway": "stop"}, [-122.42659439999777, 37.75335270001831]], "1976559879": [{"highway": "stop"}, [-122.42647069999776, 37.75328050001831]], "65362185": [{"source": "Bing", "highway": "stop"}, [-122.41798690000016, 37.80221859999973]], "65294603": [{"stop": "all", "highway": "stop"}, [-122.40282640000001, 37.767373000000035]], "3922958605": [{"highway": "stop"}, [-122.37854170000503, 37.6037888006111]], "65294608": [{"highway": "stop"}, [-122.40258180000002, 37.764785200000034]], "1437411601": [{"highway": "stop"}, [-122.40200079999906, 37.59188940000326]], "2932963602": [{"highway": "stop"}, [-122.40044290000438, 37.634407900461255]], "65442070": [{"highway": "stop"}, [-122.3216437, 37.567380099999625]], "65294618": [{"highway": "stop"}, [-122.40160290000001, 37.75458130000004]], "65327388": [{"highway": "stop"}, [-122.40026409999989, 37.800615399999785]], "3877629658": [{"highway": "stop"}, [-122.37453120000579, 37.58925680053475]], "4564822303": [{"highway": "stop"}, [-122.44069930000475, 37.79834900067816]], "4564822304": [{"highway": "stop"}, [-122.44093520000476, 37.798319000678156]], "4564822305": [{"highway": "stop"}, [-122.44083810000475, 37.79842130067816]], "4564822306": [{"highway": "stop"}, [-122.44080090000476, 37.79823730067816]], "1437411621": [{"highway": "stop"}, [-122.40555719999904, 37.58813640000326]], "65280297": [{"highway": "stop"}, [-122.39544659999991, 37.71955060000003]], "4564822314": [{"highway": "stop"}, [-122.43929270000476, 37.79852780067816]], "4564822315": [{"highway": "stop"}, [-122.43919190000476, 37.79863200067816]], "4564822316": [{"highway": "stop"}, [-122.43906080000475, 37.79855730067816]], "4564822317": [{"highway": "stop"}, [-122.43915530000476, 37.79845080067816]], "370870575": [{"highway": "stop"}, [-122.37128220000014, 37.90692889999967]], "1437411636": [{"highway": "stop"}, [-122.40183829999903, 37.591894100003245]], "110389558": [{"highway": "stop"}, [-122.52568790000025, 37.90456489999974]], "65337658": [{"highway": "stop"}, [-122.38828270000015, 37.74005060000001]], "65322720": [{"highway": "stop"}, [-122.44229900000009, 37.797188099999765]], "65329474": [{"highway": "stop"}, [-122.47336819999994, 37.78750439999979]], "2616342854": [{"highway": "stop"}, [-122.4284755999971, 37.7509239000205]], "2616342858": [{"highway": "stop"}, [-122.4255863999971, 37.739876200020504]], "65329483": [{"highway": "stop"}, [-122.47459609999994, 37.7878326999998]], "65317196": [{"source": "USGS Large Scale Imagery", "stop": "all", "highway": "stop"}, [-122.44749180000001, 37.79939259999983]], "295508301": [{"highway": "stop"}, [-122.48438560000017, 37.834347399999665]], "1972382992": [{"highway": "stop"}, [-122.42684439999775, 37.746905800018325]], "2616342865": [{"highway": "stop"}, [-122.4254810999971, 37.7398007000205]], "2823082322": [{"highway": "stop"}, [-122.51921360000463, 37.88086400027136]], "2616342862": [{"highway": "stop"}, [-122.4258122999971, 37.7420545000205]], "904993108": [{"highway": "stop"}, [-122.45573709999952, 37.65054040000013]], "2616342870": [{"highway": "stop"}, [-122.42845779999709, 37.750743600020506]], "65333591": [{"highway": "stop"}, [-122.39117400000015, 37.75776799999993]], "2616342873": [{"highway": "stop"}, [-122.4285902999971, 37.75082150002051]], "2616342875": [{"highway": "stop"}, [-122.4283979999971, 37.75012440002051]], "2616342877": [{"highway": "stop"}, [-122.4283748999971, 37.75083440002051]], "2322609893": [{"highway": "stop"}, [-122.41957849999707, 37.6571588000204]], "2616342880": [{"highway": "stop"}, [-122.4268450999971, 37.74199070002051]], "2322610531": [{"highway": "stop"}, [-122.47187639999707, 37.6528459000204]], "65294693": [{"highway": "stop"}, [-122.46287780000002, 37.743389500000035]], "2007343346": [{"direction": "forward", "highway": "stop"}, [-122.4152438999978, 37.75404240001827]], "65345898": [{"highway": "stop"}, [-122.40669780000016, 37.76714409999992]], "3453024622": [{"traffic_sign": "*", "highway": "stop"}, [-122.4928307000048, 37.64944300050579]], "4412500029": [{"highway": "stop"}, [-122.4435330000054, 37.77045080067807]], "65431925": [{"highway": "stop"}, [-122.40992379999986, 37.588240999999584]], "2845196662": [{"highway": "stop"}, [-122.42994740000476, 37.7695346003036]], "2847297940": [{"highway": "stop"}, [-122.39411720000477, 37.757698000305055]], "1837300091": [{"highway": "stop"}, [-122.47280329999874, 37.7876590000082]], "3158858110": [{"highway": "stop"}, [-122.47300200000521, 37.80321040050545]], "2617698709": [{"highway": "stop"}, [-122.42670629999729, 37.74208800002052]], "65403271": [{"highway": "stop"}, [-122.32590640000002, 37.5698504999996]], "4178559724": [{"highway": "stop"}, [-122.47421730000606, 37.77134970067853]], "2327591306": [{"highway": "stop"}, [-122.4094361999971, 37.74302150002038]], "65292685": [{"highway": "stop"}, [-122.42679720000007, 37.77066750000001]], "4036026435": [{"highway": "stop"}, [-122.45660420000635, 37.77096180067852]], "65393044": [{"highway": "stop"}, [-122.3866289999999, 37.59151619999955]], "57878933": [{"highway": "stop"}, [-122.34260769999982, 37.92390250000004]], "2847297942": [{"highway": "stop"}, [-122.39021940000478, 37.75792580030506]], "110346648": [{"source": "USGS Large Scale Imagery", "highway": "stop"}, [-122.51703090000022, 37.88943159999973]], "65466778": [{"highway": "stop"}, [-122.37559890000021, 37.583345799999705]], "5742879131": [{"highway": "stop"}, [-122.46563860000501, 37.77260760067913]], "5742879130": [{"highway": "stop"}, [-122.457669100005, 37.77110450067913]], "300515745": [{"highway": "stop"}, [-122.42005130000018, 37.77032199999964]], "2007343348": [{"direction": "forward", "highway": "stop"}, [-122.4153526999978, 37.754129100018275]], "65304997": [{"highway": "stop"}, [-122.4393370999997, 37.760628500000045]], "4036026439": [{"highway": "stop"}, [-122.46843750000635, 37.77247070067852]], "3327584684": [{"highway": "stop"}, [-122.37160760000518, 37.91685670050595]], "4564831986": [{"highway": "stop"}, [-122.43764450000477, 37.79873720067816]], "3236651454": [{"highway": "stop"}, [-122.32006080000534, 37.92794120050534]], "65407446": [{"highway": "stop"}, [-122.4278011, 37.618088599999666]], "3215919575": [{"highway": "stop"}, [-122.49027710000541, 37.63721200050534]], "743375326": [{"highway": "stop"}, [-122.48167920000024, 37.77171500000063]], "2007343350": [{"direction": "backward", "highway": "stop"}, [-122.41751909999779, 37.75382370001827]], "5109828066": [{"direction": "backward", "highway": "stop"}, [-122.41687100000443, 37.74166330067916]], "65317347": [{"highway": "stop"}, [-122.403527, 37.764722999999826]], "65317350": [{"highway": "stop"}, [-122.40450919999999, 37.76466539999983]], "1119840746": [{"highway": "stop"}, [-122.37263379999858, 37.81741540000032]], "3877628396": [{"highway": "stop"}, [-122.3710326000058, 37.593450300534755]], "3877628397": [{"highway": "stop"}, [-122.37924450000581, 37.59743630053475]], "3877628398": [{"highway": "stop"}, [-122.38077070000581, 37.59819060053475]], "3972323823": [{"highway": "stop"}, [-122.45563700000751, 37.65047050067865]], "3972323824": [{"highway": "stop"}, [-122.45556760000751, 37.65057160067865]], "1970214312": [{"highway": "stop"}, [-122.42715689999775, 37.75011020001835]], "65340866": [{"highway": "stop"}, [-122.42999140000003, 37.718153799999904]], "65309172": [{"highway": "stop"}, [-122.47820889999964, 37.80025409999991]], "2832744949": [{"highway": "stop"}, [-122.39953060000515, 37.7970299002949]], "258911657": [{"highway": "stop"}, [-122.50295920000016, 37.77921769999992]], "1970214314": [{"highway": "stop"}, [-122.42632369999775, 37.751689000018345]], "2317662719": [{"highway": "stop"}, [-122.4182264999971, 37.74673580002026]], "2614974208": [{"highway": "stop"}, [-122.4288381999971, 37.74437040002052]], "65317378": [{"highway": "stop"}, [-122.41624920000001, 37.76363399999983]], "65455531": [{"highway": "stop"}, [-122.48833640000002, 37.62558909999967]], "65317383": [{"highway": "stop"}, [-122.41850350000001, 37.76349879999983]], "2027231752": [{"highway": "stop"}, [-122.43622269999796, 37.74875380001822]], "2027231753": [{"highway": "stop"}, [-122.43607509999795, 37.74885360001822]], "2027231754": [{"highway": "stop"}, [-122.43593429999795, 37.74877000001822]], "1206794763": [{"highway": "stop"}, [-122.38953719999897, 37.71997140000053]], "2027231756": [{"highway": "stop"}, [-122.43836289999795, 37.748645800018224]], "2027231757": [{"highway": "stop"}, [-122.43827379999796, 37.748760100018224]], "65307150": [{"highway": "stop"}, [-122.49313499999973, 37.786598199999986]], "65325583": [{"highway": "stop"}, [-122.42728010000003, 37.72321369999972]], "1206794768": [{"highway": "stop"}, [-122.39106739999896, 37.718122600000534]], "315431441": [{"highway": "stop"}, [-122.45882480000033, 37.74732379999956]], "2027231762": [{"highway": "stop"}, [-122.42956789999796, 37.74914950001823]], "2027231763": [{"highway": "stop"}, [-122.43164899999796, 37.74912170001823]], "65305108": [{"highway": "stop"}, [-122.38772899999968, 37.73123200000005]], "65309205": [{"highway": "stop"}, [-122.47566089999962, 37.80441469999991]], "2027231766": [{"highway": "stop"}, [-122.42941549999796, 37.74908030001823]], "65305111": [{"highway": "stop"}, [-122.38960099999969, 37.73229000000005]], "315431448": [{"highway": "stop"}, [-122.45799220000033, 37.74698529999956]], "2027231769": [{"highway": "stop"}, [-122.43179549999796, 37.74901870001823]], "2027231770": [{"highway": "stop"}, [-122.43387049999797, 37.74881320001823]], "2027231771": [{"highway": "stop"}, [-122.43825319999796, 37.748545800018235]], "2007343352": [{"direction": "backward", "highway": "stop"}, [-122.41763099999778, 37.75390440001828]], "368396833": [{"highway": "stop"}, [-122.53708650000036, 37.897478999999656]], "65298978": [{"highway": "stop"}, [-122.40688829999985, 37.70935939999997]], "4018639963": [{"highway": "stop"}, [-122.45516040000683, 37.77101160067871]], "305041957": [{"highway": "stop"}, [-122.48980980000013, 37.628251999999605]], "65298982": [{"highway": "stop"}, [-122.40865039999984, 37.70985119999997]], "3877625265": [{"highway": "stop"}, [-122.3750696000058, 37.59994120053475]], "2614974215": [{"highway": "stop"}, [-122.4293526999971, 37.746753400020516]], "3877628460": [{"highway": "stop"}, [-122.37853600000581, 37.58499020053475]], "2322641453": [{"highway": "stop"}, [-122.47941009999708, 37.76522650002038]], "3877628462": [{"highway": "stop"}, [-122.3725026000058, 37.58665130053475]], "3877628463": [{"highway": "stop"}, [-122.3727188000058, 37.58677300053475]], "3877630517": [{"highway": "stop"}, [-122.36871360000579, 37.58444120053475]], "3877630518": [{"highway": "stop"}, [-122.3686166000058, 37.584554000534744]], "3877630519": [{"highway": "stop"}, [-122.36811590000579, 37.58513070053475]], "65405496": [{"highway": "stop"}, [-122.32406790000005, 37.58052459999965]], "3877630521": [{"highway": "stop"}, [-122.37030780000579, 37.58540720053475]], "3877630522": [{"highway": "stop"}, [-122.3773420000058, 37.586335300534756]], "3877630523": [{"highway": "stop"}, [-122.3774736000058, 37.58640910053476]], "1921696316": [{"highway": "stop"}, [-122.41888289999775, 37.74207250001829]], "3877630525": [{"direction": "forward", "highway": "stop"}, [-122.3710224000058, 37.58708770053476]], "3877630526": [{"highway": "stop"}, [-122.3805583000058, 37.58712870053476]], "2392273472": [{"highway": "stop"}, [-122.48529499999742, 37.78761590002042]], "3877630530": [{"highway": "stop"}, [-122.37614230000581, 37.58768470053476]], "3877630531": [{"highway": "stop"}, [-122.37627340000581, 37.58775760053476]], "3877630532": [{"direction": "forward", "highway": "stop"}, [-122.37327030000581, 37.588428000534755]], "3877630533": [{"highway": "stop"}, [-122.37872640000582, 37.58986150053475]], "3877630534": [{"highway": "stop"}, [-122.37890680000582, 37.58995790053475]], "3877630535": [{"highway": "stop"}, [-122.37824220000583, 37.59045220053475]], "3877630536": [{"highway": "stop"}, [-122.37842050000583, 37.59054770053475]], "2614974220": [{"highway": "stop"}, [-122.42926229999709, 37.74748370002051]], "110393943": [{"highway": "stop"}, [-122.53458630000027, 37.889703699999735]], "2007343354": [{"direction": "forward", "highway": "stop"}, [-122.41741939999778, 37.753918700018275]], "1971110495": [{"highway": "stop"}, [-122.42506269999777, 37.74861990001832]], "1971110496": [{"highway": "stop"}, [-122.42475539999776, 37.74542090001832]], "1971110499": [{"highway": "stop"}, [-122.42452889999777, 37.743022200018316]], "1971110501": [{"highway": "stop"}, [-122.42509759999777, 37.750323800018315]], "1971110504": [{"highway": "stop"}, [-122.42481219999777, 37.75025230001832]], "1971110506": [{"highway": "stop"}, [-122.42477899999777, 37.74855290001832]], "110443115": [{"highway": "stop"}, [-122.45644050000016, 37.87632769999986]], "65337964": [{"highway": "stop"}, [-122.41518610000013, 37.74037779999998]], "1971110509": [{"highway": "stop"}, [-122.42491639999777, 37.74701910001832]], "1971110510": [{"highway": "stop"}, [-122.42522099999778, 37.75022750001832]], "1971110511": [{"highway": "stop"}, [-122.42468579999777, 37.74462300001832]], "1971110512": [{"highway": "stop"}, [-122.42449779999778, 37.74704600001832]], "1971110513": [{"highway": "stop"}, [-122.42435839999779, 37.74544310001832]], "1971110514": [{"highway": "stop"}, [-122.42530009999778, 37.75101920001832]], "1971110517": [{"highway": "stop"}, [-122.42411589999779, 37.74304610001832]], "1971110519": [{"highway": "stop"}, [-122.42513379999778, 37.74942210001832]], "65292920": [{"highway": "stop"}, [-122.40649600000008, 37.74659500000001]], "1971110521": [{"highway": "stop"}, [-122.42426859999777, 37.74464720001832]], "65303162": [{"stop": "all", "highway": "stop"}, [-122.42658589999982, 37.80300700000002]], "65288827": [{"highway": "stop"}, [-122.41286200000005, 37.75097619999995]], "65288832": [{"highway": "stop"}, [-122.41394990000005, 37.75091019999995]], "5870826113": [{"highway": "stop"}, [-122.46352440000491, 37.743960400679214]], "5870826114": [{"highway": "stop"}, [-122.46390070000491, 37.74396640067921]], "2469206661": [{"highway": "stop"}, [-122.44912669999735, 37.87488850002075]], "65288839": [{"highway": "stop"}, [-122.41503590000005, 37.75084439999995]], "2469206664": [{"highway": "stop"}, [-122.44865029999735, 37.87596960002075]], "2469206667": [{"highway": "stop"}, [-122.44876469999735, 37.876111400020754]], "65348237": [{"highway": "stop"}, [-122.45940940000017, 37.63244169999984]], "5686843501": [{"highway": "stop"}, [-122.45557600000484, 37.77087300067907]], "904966803": [{"highway": "stop"}, [-122.4594556999997, 37.63230600000011]], "5686843503": [{"highway": "stop"}, [-122.45922770000485, 37.77116980067907]], "65352351": [{"highway": "stop"}, [-122.43506820000017, 37.77822039999986]], "5686843504": [{"highway": "stop"}, [-122.45903580000484, 37.77129510067907]], "65364642": [{"highway": "stop"}, [-122.40928710000017, 37.74324989999969]], "5686843505": [{"highway": "stop"}, [-122.45945040000484, 37.77135950067907]], "65292970": [{"highway": "stop"}, [-122.41777660000008, 37.74056670000002]], "65340076": [{"highway": "stop"}, [-122.40475790000006, 37.76725649999993]], "65292975": [{"highway": "stop"}, [-122.41860110000007, 37.739297600000015]], "65290928": [{"highway": "stop"}, [-122.4024592000001, 37.763501499999954]], "65290931": [{"highway": "stop"}, [-122.40341220000009, 37.76344719999995]], "1972383004": [{"highway": "stop"}, [-122.42674309999775, 37.74288850001833]], "65415865": [{"highway": "stop"}, [-122.44703139999989, 37.7078465999996]], "2477163295": [{"highway": "stop"}, [-122.43848329999724, 37.75094720002074]], "65307324": [{"highway": "stop"}, [-122.44947659999971, 37.76873789999999]], "4546868682": [{"direction": "backward", "highway": "stop"}, [-122.44114000000495, 37.8038495006781]], "65297087": [{"highway": "stop"}, [-122.48381859999995, 37.78207059999994]], "2477163296": [{"highway": "stop"}, [-122.43630839999724, 37.75125040002074]], "4546868683": [{"direction": "backward", "highway": "stop"}, [-122.44106270000495, 37.8039479006781]], "65415876": [{"highway": "stop"}, [-122.34614509999987, 37.5792190999996]], "5686843510": [{"highway": "stop"}, [-122.46619300000484, 37.77259420067907]], "2365098703": [{"highway": "stop"}, [-122.47603619999731, 37.79851170002034]], "3877640918": [{"highway": "stop"}, [-122.36472970000584, 37.58628410053475]], "5529079214": [{"direction": "backward", "highway": "stop"}, [-122.51382970000459, 37.56769870067924]], "2477163300": [{"highway": "stop"}, [-122.43838729999725, 37.751041000020734]], "1974590927": [{"highway": "stop"}, [-122.4215142999978, 37.753753900018324]], "5005650655": [{"direction": "forward", "highway": "stop"}, [-122.43747700000425, 37.73228560067898]], "4546067168": [{"direction": "forward", "highway": "stop"}, [-122.44545510000496, 37.8043390006781]], "4546067169": [{"direction": "forward", "highway": "stop"}, [-122.44534980000496, 37.804448800678095]], "4546067170": [{"direction": "backward", "highway": "stop"}, [-122.44549110000496, 37.8045171006781]], "4546067171": [{"direction": "backward", "highway": "stop"}, [-122.44558790000495, 37.804418400678095]], "65374949": [{"highway": "stop"}, [-122.47208510000014, 37.75452279999963]], "65317609": [{"highway": "stop"}, [-122.41379630000003, 37.74930249999981]], "2477163303": [{"highway": "stop"}, [-122.43202109999724, 37.75142790002074]], "1563110124": [{"highway": "stop"}, [-122.39066049999869, 37.7650154000033]], "5987119389": [{"direction": "forward", "highway": "stop"}, [-122.40400400000449, 37.76967570067933]], "5686843519": [{"highway": "stop"}, [-122.47000880000485, 37.76922660067908]], "65321732": [{"highway": "stop"}, [-122.43141610000013, 37.73101409999979]], "2477163308": [{"highway": "stop"}, [-122.43629179999725, 37.75107240002074]], "2360832789": [{"highway": "stop"}, [-122.46994499999728, 37.80492480002034]], "249060118": [{"highway": "stop"}, [-122.37166119999979, 37.91692519999985]], "2477163311": [{"highway": "stop"}, [-122.43188439999724, 37.751519700020744]], "2360832796": [{"highway": "stop"}, [-122.47114739999728, 37.80464210002034]], "65334046": [{"highway": "stop"}, [-122.41520780000022, 37.796808099999936]], "65348383": [{"highway": "stop"}, [-122.42559220000015, 37.73971869999984]], "2360832800": [{"highway": "stop"}, [-122.46984669999728, 37.80482950002034]], "2477163297": [{"highway": "stop"}, [-122.42980949999725, 37.75156110002074]], "2477163298": [{"highway": "stop"}, [-122.43849979999725, 37.751118900020735]], "2477163299": [{"highway": "stop"}, [-122.42952389999725, 37.75157830002073]], "2360832804": [{"highway": "stop"}, [-122.47123899999728, 37.80464210002034]], "2477163301": [{"highway": "stop"}, [-122.43953889999725, 37.75088030002073]], "2477163302": [{"highway": "stop"}, [-122.42966659999725, 37.75165440002073]], "2360832807": [{"highway": "stop"}, [-122.47009329999729, 37.80462090002034]], "2477163304": [{"highway": "stop"}, [-122.42866149999725, 37.751630200020735]], "2477163305": [{"highway": "stop"}, [-122.43859229999725, 37.75102850002074]], "2477163306": [{"highway": "stop"}, [-122.42845379999726, 37.75164270002074]], "2477163307": [{"highway": "stop"}, [-122.42855699999726, 37.75172230002074]], "65354540": [{"highway": "stop"}, [-122.4246700000001, 37.748654999999786]], "2477163309": [{"highway": "stop"}, [-122.43173949999725, 37.75144510002074]], "2477163310": [{"highway": "stop"}, [-122.42853869999725, 37.75154630002074]], "65293103": [{"highway": "stop"}, [-122.48743620000005, 37.787519100000026]], "65336112": [{"highway": "stop"}, [-122.42930980000014, 37.79979669999997]], "2477163313": [{"highway": "stop"}, [-122.43645749999725, 37.75115900002074]], "2477163314": [{"highway": "stop"}, [-122.43186719999724, 37.751341600020744]], "2477163315": [{"highway": "stop"}, [-122.43617029999724, 37.751176400020746]], "2642129722": [{"highway": "stop"}, [-122.44015369999664, 37.75641880003966]], "1249336124": [{"highway": "stop"}, [-122.3718954999989, 37.81632420000058]], "5686844221": [{"highway": "stop"}, [-122.46883770000485, 37.77051170067908]], "5686844222": [{"highway": "stop"}, [-122.46788450000486, 37.77118960067908]], "65336127": [{"source": "USGS Large Scale Imagery", "stop": "all", "highway": "stop"}, [-122.44579930000015, 37.79770069999997]], "2903626560": [{"highway": "stop"}, [-122.4103935000044, 37.587895800362915]], "2903626561": [{"highway": "stop"}, [-122.4103318000044, 37.58792530036291]], "2903626562": [{"highway": "stop"}, [-122.4103935000044, 37.587962000362914]], "5686844227": [{"highway": "stop"}, [-122.46683850000484, 37.76814830067908]], "2903626564": [{"highway": "stop"}, [-122.4053873000044, 37.58811610036292]], "5686844229": [{"highway": "stop"}, [-122.45925340000484, 37.773193400679084]], "5686844230": [{"highway": "stop"}, [-122.45879230000484, 37.77328760067908]], "4025607991": [{"highway": "stop"}, [-122.46687330000672, 37.771734500678505]], "2903626572": [{"highway": "stop"}, [-122.40097610000441, 37.592753300362915]], "2903626573": [{"highway": "stop"}, [-122.39722020000441, 37.593844600362914]], "2903626574": [{"highway": "stop"}, [-122.39540200000441, 37.59456490036291]], "2903626575": [{"highway": "stop"}, [-122.38843710000441, 37.59778260036291]], "2903626576": [{"highway": "stop"}, [-122.38863020000441, 37.59798580036291]], "5109828067": [{"direction": "backward", "highway": "stop"}, [-122.41709160000444, 37.74162190067916]], "65448790": [{"highway": "stop"}, [-122.35045210000006, 37.582754799999584]], "2614974265": [{"highway": "stop"}, [-122.4295079999971, 37.7500480000205]], "65330013": [{"highway": "stop"}, [-122.50008929999996, 37.738239699999795]], "258909669": [{"highway": "stop"}, [-122.50083020000025, 37.77946869999993]], "65299296": [{"highway": "stop"}, [-122.40406909999983, 37.79917949999995]], "1975378162": [{"highway": "stop"}, [-122.4225648999978, 37.74716250001833]], "3877630835": [{"highway": "stop"}, [-122.38533080000583, 37.58681230053475]], "3877630836": [{"highway": "stop"}, [-122.38314040000583, 37.58957200053475]], "65463157": [{"highway": "stop"}, [-122.3844764, 37.5879835999997]], "2327653238": [{"highway": "stop"}, [-122.4145598999971, 37.74042660002037]], "3877630839": [{"highway": "stop"}, [-122.38146890000583, 37.591324000534755]], "3877630840": [{"highway": "stop"}, [-122.38629530000583, 37.59191290053475]], "3877630841": [{"highway": "stop"}, [-122.38607730000582, 37.59192460053475]], "3877630842": [{"highway": "stop"}, [-122.38533180000583, 37.59241500053475]], "3877630843": [{"highway": "stop"}, [-122.37629200000583, 37.59277310053475]], "3877630844": [{"highway": "stop"}, [-122.38221570000583, 37.59545510053475]], "3877630845": [{"direction": "backward", "highway": "stop"}, [-122.38617620000583, 37.59845910053475]], "5686844224": [{"highway": "stop"}, [-122.46681040000485, 37.77026010067908]], "5686844225": [{"highway": "stop"}, [-122.46788850000485, 37.76930350067908]], "1707875211": [{"highway": "stop"}, [-122.4706320999977, 37.73662990000372]], "5686844226": [{"highway": "stop"}, [-122.46717960000484, 37.76812290067908]], "65293198": [{"highway": "stop"}, [-122.43965900000002, 37.71696040000002]], "65397652": [{"highway": "stop"}, [-122.45086679999993, 37.63850709999961]], "65328021": [{"highway": "stop"}, [-122.4112147999999, 37.7413949999998]], "5686844228": [{"highway": "stop"}, [-122.46032630000484, 37.77018340067908]], "110406559": [{"highway": "stop"}, [-122.45582370000004, 37.87354239999977]], "4546071462": [{"direction": "forward", "highway": "stop"}, [-122.44382910000495, 37.8047360006781]], "1976559858": [{"highway": "stop"}, [-122.42663529999776, 37.75487830001831]], "267609010": [{"highway": "stop"}, [-122.3645505999999, 37.58616009999973]], "65310195": [{"highway": "stop"}, [-122.40572339999969, 37.76720049999992]], "2302020533": [{"highway": "stop"}, [-122.48450279999707, 37.83441280002032]], "110408633": [{"highway": "stop"}, [-122.46982570000003, 37.877152099999805]], "65307580": [{"highway": "stop"}, [-122.38810999999966, 37.727666]], "4561523646": [{"highway": "stop"}, [-122.50650600000475, 37.72932640067817]], "2477163312": [{"highway": "stop"}, [-122.42964959999725, 37.75147830002074]], "2614974268": [{"highway": "stop"}, [-122.4289509999971, 37.7442789000205]], "65473480": [{"source": "Yahoo", "highway": "stop"}, [-122.42373900000032, 37.656095799999704]], "65305546": [{"highway": "stop"}, [-122.44407399999972, 37.74673780000005]], "65309175": [{"highway": "stop"}, [-122.47810099999964, 37.80040799999991]], "1974590915": [{"highway": "stop"}, [-122.4196974999978, 37.75368920001832]], "110410704": [{"highway": "stop"}, [-122.48102949999998, 37.902576299999815]], "2449296888": [{"highway": "stop"}, [-122.45335249999737, 37.731578700020556]], "1735998419": [{"highway": "stop"}, [-122.4535165999979, 37.731500700004034]], "65352664": [{"highway": "stop"}, [-122.39072610000017, 37.731050799999835]], "65315805": [{"highway": "stop"}, [-122.45897539999993, 37.77334859999982]], "2327643102": [{"highway": "stop"}, [-122.41509459999709, 37.74152770002038]], "2327610335": [{"highway": "stop"}, [-122.41897829999711, 37.746767000020384]], "65340857": [{"highway": "stop"}, [-122.43238500000004, 37.7192979999999]], "2912963556": [{"highway": "stop"}, [-122.47338180000631, 37.78847200038422]], "2270524391": [{"highway": "stop"}, [-122.42279639999735, 37.634337200019985]], "3158864873": [{"highway": "stop"}, [-122.40547540000522, 37.74242060050544]], "1707875306": [{"highway": "stop"}, [-122.47053079999768, 37.736564400003736]], "65291253": [{"highway": "stop"}, [-122.4093635000001, 37.742880499999984]], "65321975": [{"highway": "stop"}, [-122.3961498000001, 37.71704109999978]], "313868116": [{"highway": "stop"}, [-122.49663830000016, 37.73378729999956]], "2691855704": [{"highway": "stop"}, [-122.42116229999957, 37.63477650011231]], "65315670": [{"highway": "stop"}, [-122.45947589999993, 37.798003199999805]], "1974590917": [{"highway": "stop"}, [-122.42140739999779, 37.75366480001832]], "2322612055": [{"highway": "stop"}, [-122.46907559999708, 37.6634047000204]], "2270524428": [{"highway": "stop"}, [-122.42266969999737, 37.63432020001998]], "65418301": [{"highway": "stop"}, [-122.39625889999982, 37.5941126999996]], "5686844223": [{"highway": "stop"}, [-122.46696780000485, 37.77184290067908]], "2027231755": [{"highway": "stop"}, [-122.42943159999795, 37.74924810001822]], "478483524": [{"highway": "stop"}, [-122.4568535999998, 37.771175599999935]], "65341406": [{"highway": "stop"}, [-122.41702740000002, 37.74046699999993]], "3170753609": [{"highway": "stop"}, [-122.46833940000535, 37.710724200505396]], "65297482": [{"highway": "stop"}, [-122.41889709999991, 37.74101189999994]], "3170753612": [{"highway": "stop"}, [-122.46845300000535, 37.7107937005054]], "4561610812": [{"highway": "stop"}, [-122.43975060000474, 37.731460800678164]], "3170753617": [{"highway": "stop"}, [-122.46685670000535, 37.711187600505404]], "2027231758": [{"highway": "stop"}, [-122.43401109999796, 37.748886100018225]], "65301591": [{"highway": "stop"}, [-122.44415369999983, 37.79790989999997]], "65354843": [{"highway": "stop"}, [-122.48961130000006, 37.78741419999979]], "1976559864": [{"highway": "stop"}, [-122.42571269999776, 37.75671730001831]], "65354846": [{"highway": "stop"}, [-122.48976520000006, 37.78766059999979]], "65301599": [{"source": "USGS Large Scale Imagery", "stop": "all", "highway": "stop"}, [-122.44452999999983, 37.79976909999997]], "65301601": [{"source": "USGS Large Scale Imagery", "stop": "all", "highway": "stop"}, [-122.44471939999983, 37.80070449999997]], "2027231761": [{"highway": "stop"}, [-122.42928929999796, 37.74916670001823]], "311391341": [{"highway": "stop"}, [-122.37158450000035, 37.81629949999971]], "2027231764": [{"highway": "stop"}, [-122.43388689999796, 37.748984000018226]], "2027231765": [{"highway": "stop"}, [-122.43605859999796, 37.74867530001823]], "2932962496": [{"highway": "stop"}, [-122.40046770000437, 37.63423430046126]], "3170743427": [{"highway": "stop"}, [-122.45811530000535, 37.7470848005054]], "2027231767": [{"highway": "stop"}, [-122.43370919999796, 37.74890420001823]], "4694791309": [{"direction": "backward", "highway": "stop"}, [-122.45441750000421, 37.790640400678285]], "4694791312": [{"direction": "forward", "highway": "stop"}, [-122.4543034000042, 37.790662900678285]], "2027231768": [{"highway": "stop"}, [-122.43150969999796, 37.74903560001823]], "4694791314": [{"direction": "backward", "highway": "stop"}, [-122.4538496000042, 37.79075260067828]], "4694791315": [{"direction": "forward", "highway": "stop"}, [-122.4536911000042, 37.79078350067828]], "65391771": [{"source": "Yahoo", "highway": "stop"}, [-122.41147589999997, 37.65857339999954]], "4021550353": [{"highway": "stop"}, [-122.41488190000659, 37.7492442006786]], "295218333": [{"highway": "stop"}, [-122.42241370000013, 37.74556979999968]], "1221102753": [{"note": "Is that arc on turning from Tennessee to Chavez an dismantled rail way or something?", "highway": "stop"}, [-122.38854499999897, 37.75034420000054]], "2322611362": [{"highway": "stop"}, [-122.45552879999707, 37.6288670000204]], "65416356": [{"highway": "stop"}, [-122.43599699999989, 37.6375795999996]], "65500326": [{"highway": "stop"}, [-122.40095640000044, 37.59283219999981]], "2932962473": [{"highway": "stop"}, [-122.39959240000438, 37.63284570046127]], "65303723": [{"stop": "minor", "highway": "stop"}, [-122.40080489999977, 37.77113070000003]], "65303726": [{"stop": "minor", "highway": "stop"}, [-122.40001899999977, 37.77049040000003]], "4564819902": [{"highway": "stop"}, [-122.44262580000475, 37.79810410067816]], "2932962487": [{"highway": "stop"}, [-122.40003760000437, 37.63344660046126]], "65303736": [{"stop": "minor", "highway": "stop"}, [-122.39821599999978, 37.76904470000002]], "2327614652": [{"highway": "stop"}, [-122.4222359999971, 37.74171320002038]], "3877630837": [{"highway": "stop"}, [-122.38289700000583, 37.58961460053475]], "1040542912": [{"source": "USGS Large Scale Imagery", "direction": "forward", "highway": "stop"}, [-122.51718779999916, 37.888767600000214]], "3877630838": [{"highway": "stop"}, [-122.38200610000582, 37.59079050053475]], "2365024802": [{"highway": "stop"}, [-122.4671737999973, 37.800999300020344]], "2844812502": [{"highway": "stop"}, [-122.48919310000474, 37.62661410030361]], "2469023150": [{"highway": "stop"}, [-122.51697589999738, 37.89189500002075]], "65326296": [{"highway": "stop"}, [-122.4613865, 37.74557399999973]], "65328349": [{"highway": "stop"}, [-122.43258099999991, 37.7909284999998]], "2327641311": [{"highway": "stop"}, [-122.41962729999709, 37.739597600020375]], "1511324896": [{"highway": "stop"}, [-122.4556006999987, 37.77080270000323]], "4013885990": [{"source": "USGS Large Scale Imagery", "direction": "backward", "highway": "stop"}, [-122.51624040000704, 37.88916950067872]], "65354983": [{"highway": "stop"}, [-122.49048130000004, 37.78637069999979]], "2327641320": [{"highway": "stop"}, [-122.41966099999709, 37.73984960002038]], "4008987881": [{"source": "USGS Large Scale Imagery", "stop": "all", "highway": "stop"}, [-122.44636460000706, 37.80049470067869]], "2327618794": [{"highway": "stop"}, [-122.4182474999971, 37.74663240002038]], "65320171": [{"highway": "stop"}, [-122.40184300000018, 37.76743099999977]], "65318126": [{"highway": "stop"}, [-122.39967800000004, 37.76669499999981]], "110382320": [{"highway": "stop"}, [-122.53697580000028, 37.89754899999979]], "2207370484": [{"highway": "stop"}, [-122.53105449999701, 37.831891600019745]], "65335166": [{"highway": "stop"}, [-122.42170500000017, 37.74641549999998]], "2618008822": [{"highway": "stop"}, [-122.39672799999705, 37.78220760002052]], "2882819842": [{"highway": "stop"}, [-122.49202410000643, 37.78624200033984]], "65328379": [{"highway": "stop"}, [-122.40378499999991, 37.767314199999795]], "2207370492": [{"highway": "stop"}, [-122.53103029999701, 37.83200510001974]], "4351880447": [{"source": "Mapillary", "highway": "stop"}, [-122.44772870000556, 37.80039800067806]], "1972382977": [{"highway": "stop"}, [-122.42712939999775, 37.746888700018324]], "65307906": [{"highway": "stop"}, [-122.39487239999963, 37.72018899999999]], "1972382982": [{"highway": "stop"}, [-122.42669699999776, 37.74379250001832]], "65336583": [{"highway": "stop"}, [-122.4367137000002, 37.77801269999997]], "1972382984": [{"highway": "stop"}, [-122.42653239999775, 37.74371410001832]], "5146309897": [{"source": "esri", "highway": "stop"}, [-122.47780500000432, 37.84460300067915]], "1972382986": [{"highway": "stop"}, [-122.42720889999775, 37.747697300018324]], "1972382988": [{"highway": "stop"}, [-122.42659569999775, 37.74281900001832]], "1972382989": [{"highway": "stop"}, [-122.42654329999775, 37.74219560001832]], "1972382990": [{"highway": "stop"}, [-122.42661219999775, 37.74299150001832]], "1972382991": [{"highway": "stop"}, [-122.42692379999775, 37.74771420001832]], "65361168": [{"highway": "stop"}, [-122.40905330000017, 37.74321559999977]], "1972382993": [{"highway": "stop"}, [-122.42697449999775, 37.74528930001833]], "1972382994": [{"highway": "stop"}, [-122.42661169999775, 37.74450680001833]], "65328405": [{"highway": "stop"}, [-122.40256539999993, 37.754522699999804]], "2322611479": [{"highway": "stop"}, [-122.43250879999707, 37.6529544000204]], "2322611480": [{"highway": "stop"}, [-122.43214869999707, 37.6531150000204]], "65307930": [{"highway": "stop"}, [-122.41640569999963, 37.740437]], "295531804": [{"highway": "stop"}, [-122.48367790000019, 37.83371599999966]], "1972383006": [{"highway": "stop"}, [-122.42646029999776, 37.74290550001833]], "1972383008": [{"highway": "stop"}, [-122.42690139999776, 37.74448920001833]], "1972383010": [{"highway": "stop"}, [-122.42707289999775, 37.74779010001833]], "1972383012": [{"highway": "stop"}, [-122.42682149999776, 37.74369650001833]], "65312038": [{"highway": "stop"}, [-122.41462799999977, 37.73888639999985]], "1972383015": [{"highway": "stop"}, [-122.42700089999775, 37.74698840001833]], "295531817": [{"direction": "backward", "highway": "stop"}, [-122.4834245000002, 37.83321939999965]], "1972383019": [{"highway": "stop"}, [-122.42705599999775, 37.74761400001833]], "110376236": [{"highway": "stop"}, [-122.51381060000024, 37.89105669999974]], "1972383021": [{"highway": "stop"}, [-122.42668049999774, 37.74361480001833]], "1972383023": [{"highway": "stop"}, [-122.42669149999774, 37.74530620001833]], "1972383024": [{"highway": "stop"}, [-122.42677049999774, 37.746106900018326]], "1972383025": [{"highway": "stop"}, [-122.42638499999775, 37.74211110001833]], "1972383026": [{"highway": "stop"}, [-122.42698449999776, 37.746816400018325]], "65355060": [{"highway": "stop"}, [-122.41580910000003, 37.73891859999979]], "1066863925": [{"highway": "stop"}, [-122.47427109999903, 37.80724340000027]], "65281338": [{"highway": "stop"}, [-122.46722349999993, 37.799608900000024]], "65318205": [{"highway": "stop"}, [-122.38980100000005, 37.72579099999981]], "110386495": [{"highway": "stop"}, [-122.51866940000029, 37.893456899999755]], "65293636": [{"highway": "stop"}, [-122.42824830000002, 37.75969550000002]], "3877635397": [{"direction": "backward", "highway": "stop"}, [-122.37035410000584, 37.58765280053475]], "65303878": [{"stop": "all", "highway": "stop"}, [-122.40389269999979, 37.768595800000014]], "3877635399": [{"direction": "forward", "highway": "stop"}, [-122.36975110000584, 37.58829450053475]], "3877635400": [{"direction": "backward", "highway": "stop"}, [-122.36993750000585, 37.58840550053475]], "3877635401": [{"direction": "forward", "highway": "stop"}, [-122.36915020000585, 37.588933700534746]], "3877635402": [{"direction": "backward", "highway": "stop"}, [-122.36933500000585, 37.589044300534745]], "3877635403": [{"highway": "stop"}, [-122.36867220000585, 37.58960080053475]], "3788430670": [{"highway": "stop"}, [-122.45774110000482, 37.764924700521476]], "3788430671": [{"highway": "stop"}, [-122.45795170000483, 37.76534990052148]], "2270524362": [{"highway": "stop"}, [-122.42270469999737, 37.63408690001998]], "3877630520": [{"highway": "stop"}, [-122.3701241000058, 37.58530480053475]], "2691855698": [{"highway": "stop"}, [-122.41755489999956, 37.630730900112304]], "2365087059": [{"highway": "stop"}, [-122.46860259999731, 37.79646320002034]], "2691855701": [{"highway": "stop"}, [-122.42282509999956, 37.63410960011231]], "2691855702": [{"highway": "stop"}, [-122.42088899999956, 37.63457530011231]], "65338712": [{"highway": "stop"}, [-122.50082380000013, 37.77938169999996]], "2691855705": [{"highway": "stop"}, [-122.42128699999957, 37.63479660011231]], "65346908": [{"highway": "stop"}, [-122.38661900000022, 37.73246599999988]], "65346909": [{"highway": "stop"}, [-122.38716700000022, 37.731856999999884]], "4564819903": [{"highway": "stop"}, [-122.44235250000474, 37.79813890067816]], "57838953": [{"highway": "stop"}, [-122.38371119999988, 37.92464540000008]], "4782527859": [{"highway": "stop"}, [-122.4191206000037, 37.739622000679134]], "65457530": [{"stop": "all", "highway": "stop"}, [-122.47156900000004, 37.66199759999966]], "110388610": [{"highway": "stop"}, [-122.47856680000025, 37.83390519999974]], "1971115401": [{"highway": "stop"}, [-122.42454829999777, 37.74615200001832]], "1971115402": [{"highway": "stop"}, [-122.42442429999777, 37.74624530001832]], "1971115403": [{"highway": "stop"}, [-122.42483459999777, 37.746226000018325]], "1971115405": [{"highway": "stop"}, [-122.42471379999776, 37.746325800018326]], "1161809312": [{"highway": "stop"}, [-122.32056499999831, 37.56207040000046]], "65293729": [{"highway": "stop"}, [-122.41777900000002, 37.739184000000016]], "3066652068": [{"highway": "stop"}, [-122.47407610000555, 37.771058100505606]], "1970214311": [{"direction": "forward", "highway": "stop"}, [-122.42730959999776, 37.751711600018346]], "258911656": [{"highway": "stop"}, [-122.50081700000017, 37.77928779999992]], "1970214313": [{"highway": "stop"}, [-122.42728659999776, 37.75001470001835]], "258911658": [{"highway": "stop"}, [-122.50403400000016, 37.779168199999916]], "1970214315": [{"highway": "stop"}, [-122.42743649999775, 37.75009330001834]], "1970214316": [{"direction": "backward", "highway": "stop"}, [-122.42759059999776, 37.75169470001834]], "1970214317": [{"highway": "stop"}, [-122.42720989999776, 37.74921670001834]], "1970214318": [{"highway": "stop"}, [-122.42715009999776, 37.74859430001834]], "1970214319": [{"highway": "stop"}, [-122.42730349999776, 37.75019080001834]], "1970214320": [{"highway": "stop"}, [-122.42713319999777, 37.748418300018336]], "1970214321": [{"highway": "stop"}, [-122.42751409999777, 37.75088510001834]], "1970214322": [{"highway": "stop"}, [-122.42722979999776, 37.75090210001834]], "1970214323": [{"highway": "stop"}, [-122.42707759999776, 37.749310200018336]], "1970214324": [{"direction": "backward", "highway": "stop"}, [-122.42744009999775, 37.75161370001833]], "1970214325": [{"highway": "stop"}, [-122.42700059999775, 37.748502700018335]], "1970214326": [{"highway": "stop"}, [-122.42633989999776, 37.75185820001833]], "1970214327": [{"highway": "stop"}, [-122.42722649999776, 37.74938900001833]], "1970214328": [{"highway": "stop"}, [-122.42736459999776, 37.749292500018335]], "1970214329": [{"direction": "forward", "highway": "stop"}, [-122.42745709999775, 37.75179130001833]], "1970214330": [{"highway": "stop"}, [-122.42728749999775, 37.74848540001833]], "318565821": [{"source": "USGS Large Scale Imagery", "direction": "forward", "highway": "stop"}, [-122.51751800000015, 37.889294499999515]], "2007343349": [{"direction": "backward", "highway": "stop"}, [-122.4153373999978, 37.753955200018275]], "65433026": [{"highway": "stop"}, [-122.48934669999989, 37.636524799999556]], "65322435": [{"highway": "stop"}, [-122.48636430000012, 37.78756749999979]], "65433029": [{"highway": "stop"}, [-122.48814029999988, 37.636795199999554]], "1974590920": [{"highway": "stop"}, [-122.4216315999978, 37.75365100001832]], "4546868681": [{"direction": "forward", "highway": "stop"}, [-122.44102590000495, 37.8037652006781]], "65433021": [{"highway": "stop"}, [-122.49219359999988, 37.636512599999556]], "2007343351": [{"direction": "backward", "highway": "stop"}, [-122.41518049999779, 37.75235500001828]], "4546868684": [{"direction": "forward", "highway": "stop"}, [-122.44096050000495, 37.8038722006781]], "1974590926": [{"highway": "stop"}, [-122.4196143999978, 37.75377550001832]], "318565839": [{"source": "USGS Large Scale Imagery", "direction": "forward", "highway": "stop"}, [-122.51750400000014, 37.88961999999952]], "1974590929": [{"highway": "stop"}, [-122.4198152999978, 37.75376330001833]], "2007343353": [{"direction": "forward", "highway": "stop"}, [-122.41301999999779, 37.75266270001828]], "65359321": [{"highway": "stop"}, [-122.40335870000013, 37.80403239999978]], "1976559866": [{"highway": "stop"}, [-122.42665899999777, 37.755053500018306]], "1563129310": [{"railway": "level_crossing", "highway": "stop"}, [-122.42913719999869, 37.7694019000033]], "2630901217": [{"highway": "stop"}, [-122.49699419999669, 37.73370810002282]], "5608360187": [{"direction": "forward", "highway": "stop"}, [-122.4094772000048, 37.64811280067915]], "1614214629": [{"highway": "stop"}, [-122.44390889999808, 37.74683410000343]], "4688893416": [{"direction": "backward", "stop": "minor", "highway": "stop"}, [-122.38921280000437, 37.779848600678214]], "258909673": [{"highway": "stop"}, [-122.50296640000025, 37.779318799999935]], "258909676": [{"highway": "stop"}, [-122.50404140000025, 37.779270699999934]], "65359346": [{"highway": "stop"}, [-122.47445610000013, 37.78710139999977]], "318565875": [{"source": "USGS Large Scale Imagery", "highway": "stop"}, [-122.51742880000015, 37.889542099999524]], "2007343358": [{"direction": "backward", "highway": "stop"}, [-122.41311169999778, 37.752565300018276]], "2992155561": [{"highway": "stop"}, [-122.42906890000562, 37.76940570050547]], "65287672": [{"highway": "stop"}, [-122.46309289999998, 37.7791529999999]], "318565887": [{"highway": "stop"}, [-122.51644810000015, 37.888678199999525]], "110372355": [{"highway": "stop"}, [-122.48364180000027, 37.83620379999973]], "65336838": [{"source": "USGS Large Scale Imagery", "stop": "all", "highway": "stop"}, [-122.44598750000017, 37.79863089999998]], "2844802697": [{"highway": "stop"}, [-122.48707280000474, 37.62621680030362]], "4547308119": [{"highway": "stop"}, [-122.41754430000499, 37.76999490067812]], "2322642446": [{"highway": "stop"}, [-122.44008189999708, 37.76126760002038]], "318567951": [{"highway": "stop"}, [-122.51595610000018, 37.90349499999951]], "2327612947": [{"highway": "stop"}, [-122.4176517999971, 37.74046340002038]], "2946283031": [{"highway": "stop"}, [-122.42874840000557, 37.740251500505344]], "65322521": [{"highway": "stop"}, [-122.4203870000001, 37.742678999999775]], "2951539019": [{"highway": "stop"}, [-122.47968540000555, 37.83784880050542]], "65287709": [{"highway": "stop"}, [-122.46094679999997, 37.779250699999906]], "65306143": [{"highway": "stop"}, [-122.42535619999975, 37.72867260000002]], "110386722": [{"highway": "stop"}, [-122.53746000000031, 37.895699299999755]], "65310249": [{"highway": "stop"}, [-122.40461909999965, 37.730043599999924]], "2019051051": [{"direction": "forward", "highway": "stop"}, [-122.41722909999784, 37.75079800001826]], "2019051052": [{"direction": "forward", "highway": "stop"}, [-122.41710009999784, 37.750719500018256]], "2019051053": [{"direction": "backward", "highway": "stop"}, [-122.41734119999784, 37.750704900018256]], "2019051054": [{"direction": "backward", "highway": "stop"}, [-122.41721239999784, 37.750624000018256]], "2019051055": [{"highway": "stop"}, [-122.41930679999784, 37.75058580001826]], "2019051056": [{"highway": "stop"}, [-122.42144659999784, 37.750537600018255]], "2019051057": [{"highway": "stop"}, [-122.41951279999783, 37.75057330001825]], "2019051058": [{"highway": "stop"}, [-122.41939159999784, 37.750491500018256]], "2019051059": [{"highway": "stop"}, [-122.42143019999784, 37.75036950001826]], "65334838": [{"highway": "stop"}, [-122.4214930000002, 37.75357899999996]], "65480256": [{"highway": "stop"}, [-122.45019350000035, 37.63897859999978]], "4561598017": [{"highway": "stop"}, [-122.45343160000475, 37.731646400678166]], "65314370": [{"highway": "stop"}, [-122.42914539999983, 37.76949599999983]], "65353284": [{"highway": "stop"}, [-122.4650396000002, 37.74064809999981]], "2322612150": [{"highway": "stop"}, [-122.45204059999709, 37.6386384000204]], "3877637704": [{"direction": "forward", "highway": "stop"}, [-122.36676230000585, 37.583434700534745]], "3877637705": [{"direction": "backward", "highway": "stop"}, [-122.36690020000584, 37.58351210053475]], "65396301": [{"highway": "stop"}, [-122.37561799999992, 37.588392799999596]], "904984142": [{"highway": "stop"}, [-122.46893429999967, 37.66145130000012]], "65396306": [{"highway": "stop"}, [-122.37681029999992, 37.5870516999996]], "65293907": [{"source": "USGS Large Scale Imagery", "direction": "forward", "highway": "stop"}, [-122.4476248, 37.80024860000002]], "65396310": [{"highway": "stop"}, [-122.37800409999991, 37.5857008999996]], "1973854137": [{"highway": "stop"}, [-122.42373079999778, 37.75031780001832]], "661909080": [{"highway": "stop"}, [-122.40033759999993, 37.63422800000057]], "65314393": [{"highway": "stop"}, [-122.43661589999982, 37.769015199999835]], "65410651": [{"source": "Yahoo", "highway": "stop"}, [-122.42869689999996, 37.66368689999963]], "5033653852": [{"direction": "forward", "stop": "minor", "highway": "stop"}, [-122.4478224000044, 37.80152260067901]], "5335127326": [{"highway": "stop"}, [-122.43389060000455, 37.804928200679015]], "1769072912": [{"highway": "stop"}, [-122.39985859999828, 37.633605800004176]], "65410659": [{"source": "Yahoo", "highway": "stop"}, [-122.42709639999995, 37.66454709999963]], "2932963601": [{"highway": "stop"}, [-122.40032710000438, 37.63438330046125]], "1901459057": [{"highway": "stop"}, [-122.41647379999775, 37.73897890001828]], "3314954623": [{"highway": "stop"}, [-122.47811030000518, 37.800296200505954]], "1901459060": [{"highway": "stop"}, [-122.41652259999775, 37.73914170001828]], "65306229": [{"highway": "stop"}, [-122.39858149999976, 37.73644000000002]], "2844802681": [{"highway": "stop"}, [-122.48487200000474, 37.62064320030362]], "2844802682": [{"highway": "stop"}, [-122.48529030000475, 37.620652700303616]], "2844802683": [{"highway": "stop"}, [-122.48618780000474, 37.62348080030362]], "2844802684": [{"highway": "stop"}, [-122.48606380000474, 37.62511140030362]], "2844802687": [{"highway": "stop"}, [-122.48621680000475, 37.625309600303616]], "1971110507": [{"highway": "stop"}, [-122.42494359999777, 37.74872260001832]], "1971110508": [{"highway": "stop"}, [-122.42512719999777, 37.75102960001832]], "2882819843": [{"highway": "stop"}, [-122.48845380000643, 37.78749150033984]], "2027231759": [{"highway": "stop"}, [-122.43815659999797, 37.748651300018224]], "65306267": [{"highway": "stop"}, [-122.46702279999978, 37.801677900000016]], "984774300": [{"highway": "stop"}, [-122.3928491999994, 37.77046190000031]], "65312028": [{"direction": "forward", "stop": "minor", "highway": "stop"}, [-122.41713899999976, 37.73912169999985]], "2482929327": [{"highway": "stop"}, [-122.47438709999719, 37.78613050002074]], "2482929328": [{"highway": "stop"}, [-122.4732037999972, 37.78536110002074]], "1973854152": [{"highway": "stop"}, [-122.42384059999779, 37.75041230001832]], "2482929330": [{"highway": "stop"}, [-122.47427599999719, 37.78624640002074]], "2482929331": [{"highway": "stop"}, [-122.47440269999719, 37.78634800002074]], "2482929332": [{"highway": "stop"}, [-122.47330439999719, 37.78673780002074]], "65396405": [{"highway": "stop"}, [-122.38996979999992, 37.57783969999959]], "2027231760": [{"highway": "stop"}, [-122.43163199999796, 37.748945700018226]], "1973854154": [{"highway": "stop"}, [-122.42431149999778, 37.75519780001832]], "65349237": [{"highway": "stop"}, [-122.46419390000018, 37.7444650999998]], "65339076": [{"highway": "stop"}, [-122.45190600000014, 37.71023099999996]], "65322696": [{"turn_restrictions": "no", "highway": "stop"}, [-122.42254320000009, 37.79969599999976]], "5870826103": [{"highway": "stop"}, [-122.46340270000492, 37.743657800679216]], "702402253": [{"highway": "stop"}, [-122.5010108000001, 37.73539680000057]], "4085309134": [{"highway": "stop"}, [-122.48993440000608, 37.630605000678706]], "4036026317": [{"highway": "stop"}, [-122.47363520000641, 37.77113270067851]], "4012202147": [{"highway": "stop"}, [-122.43860730000699, 37.79574440067872]], "65287892": [{"highway": "stop"}, [-122.50210349999998, 37.736279099999905]], "65287895": [{"highway": "stop"}, [-122.50317679999998, 37.7362314999999]], "3877629657": [{"highway": "stop"}, [-122.3743236000058, 37.58913450053475]], "65287898": [{"highway": "stop"}, [-122.50424619999998, 37.7361839999999]], "258289372": [{"highway": "stop"}, [-122.5030611, 37.72536769999983]], "65287902": [{"highway": "stop"}, [-122.50531749999999, 37.7361364999999]], "65322719": [{"highway": "stop"}, [-122.44063180000009, 37.79740009999976]], "65289952": [{"highway": "stop"}, [-122.47045720000013, 37.77143409999998]], "1971110523": [{"highway": "stop"}, [-122.42493289999777, 37.75015520001832]], "65322724": [{"source": "USGS Large Scale Imagery", "stop": "all", "highway": "stop"}, [-122.44561040000009, 37.79676719999976]], "65305894": [{"highway": "stop"}, [-122.45959009999976, 37.79948900000004]], "5863003880": [{"highway": "stop"}, [-122.46369200000487, 37.743491300679196]], "65339116": [{"source": "Yahoo", "highway": "stop"}, [-122.40622610000014, 37.76945289999995]], "4593719021": [{"highway": "stop"}, [-122.49939930000464, 37.76073200067813]], "2322609902": [{"highway": "stop"}, [-122.41951139999708, 37.6573508000204]], "65433327": [{"source": "Yahoo", "highway": "stop"}, [-122.41535619999988, 37.65835799999954]], "4564831984": [{"highway": "stop"}, [-122.43751180000476, 37.79865920067816]], "4564831985": [{"highway": "stop"}, [-122.43740640000476, 37.79876750067816]], "65298162": [{"highway": "stop"}, [-122.41834699999988, 37.74078899999996]], "4564831987": [{"highway": "stop"}, [-122.43754960000477, 37.79884550067816]], "2327650832": [{"highway": "stop"}, [-122.4158907999971, 37.73909700002037]], "1972383017": [{"highway": "stop"}, [-122.42705359999775, 37.74608930001833]], "2614974203": [{"highway": "stop"}, [-122.4289681999971, 37.74445710002052]], "2614974204": [{"highway": "stop"}, [-122.4291572999971, 37.74758240002052]], "2614974206": [{"highway": "stop"}, [-122.4292014999971, 37.74685160002052]], "110378752": [{"highway": "stop"}, [-122.51311170000028, 37.89860009999978]], "2882819841": [{"highway": "stop"}, [-122.49056290000644, 37.78614870033984]], "2614974210": [{"highway": "stop"}, [-122.4289027999971, 37.74186760002052]], "2614974211": [{"highway": "stop"}, [-122.4293376999971, 37.74827480002052]], "2882819844": [{"highway": "stop"}, [-122.48949640000643, 37.78753950033984]], "2614974213": [{"highway": "stop"}, [-122.4291852999971, 37.74668180002052]], "65339143": [{"highway": "stop"}, [-122.36996560000013, 37.82526579999995]], "2614974216": [{"highway": "stop"}, [-122.4294950999971, 37.748353000020515]], "2614974218": [{"highway": "stop"}, [-122.4289615999971, 37.74275470002051]], "65345292": [{"highway": "stop"}, [-122.43696230000016, 37.79595349999994]], "2614974222": [{"highway": "stop"}, [-122.42973679999709, 37.75075230002051]], "2614974224": [{"highway": "stop"}, [-122.42879829999708, 37.742684200020506]], "2614974225": [{"highway": "stop"}, [-122.42926469999708, 37.745951100020505]], "2614974227": [{"highway": "stop"}, [-122.42921589999708, 37.748369800020505]], "2614974229": [{"highway": "stop"}, [-122.42911429999708, 37.7443536000205]], "2614974230": [{"highway": "stop"}, [-122.42873759999708, 37.7420539000205]], "2614974232": [{"highway": "stop"}, [-122.42906329999708, 37.7467709000205]], "2614974233": [{"highway": "stop"}, [-122.42887459999709, 37.7434772000205]], "2614974235": [{"highway": "stop"}, [-122.42927889999709, 37.7476579000205]], "2614974236": [{"highway": "stop"}, [-122.42876839999708, 37.7435782000205]], "2614974238": [{"highway": "stop"}, [-122.42910729999709, 37.7458720000205]], "2614974240": [{"highway": "stop"}, [-122.42889159999709, 37.743655600020496]], "2614974241": [{"highway": "stop"}, [-122.42860449999709, 37.741971900020495]], "2614974243": [{"highway": "stop"}, [-122.4294890999971, 37.74985050002049]], "2614974244": [{"highway": "stop"}, [-122.4290366999971, 37.743561900020495]], "2614974246": [{"highway": "stop"}, [-122.4293551999971, 37.74845690002049]], "2614974247": [{"highway": "stop"}, [-122.4296562999971, 37.749958800020494]], "2614974249": [{"highway": "stop"}, [-122.4292027999971, 37.7451551000205]], "2614974250": [{"highway": "stop"}, [-122.4286850999971, 37.7427713000205]], "2614974252": [{"highway": "stop"}, [-122.4295689999971, 37.7506797000205]], "2614974254": [{"highway": "stop"}, [-122.4295864999971, 37.7508560000205]], "2614974255": [{"highway": "stop"}, [-122.4294308999971, 37.747566300020495]], "2614974257": [{"highway": "stop"}, [-122.4293690999971, 37.7499762000205]], "2614974258": [{"highway": "stop"}, [-122.4291251999971, 37.7460544000205]], "2614974260": [{"highway": "stop"}, [-122.4294542999971, 37.750769400020495]], "65421109": [{"highway": "stop"}, [-122.49114209999979, 37.649285999999606]], "2614974262": [{"highway": "stop"}, [-122.4289104999971, 37.745172600020496]], "2614974263": [{"highway": "stop"}, [-122.4288149999971, 37.7428574000205]], "65421113": [{"highway": "stop"}, [-122.4905701999998, 37.64927819999961]], "2614974266": [{"highway": "stop"}, [-122.4289855999971, 37.7459682000205]], "65369916": [{"highway": "stop"}, [-122.44387800000007, 37.746728499999655]], "2614974269": [{"highway": "stop"}, [-122.4290392999971, 37.741945200020496]], "2327637826": [{"highway": "stop"}, [-122.41822189999709, 37.74602660002038]], "2327637827": [{"highway": "stop"}, [-122.4193863999971, 37.746140000020375]], "65333063": [{"highway": "stop"}, [-122.47548800000014, 37.788691299999925]], "313868104": [{"highway": "stop"}, [-122.49676300000016, 37.73358009999956]], "4561610813": [{"highway": "stop"}, [-122.43991580000474, 37.731540000678166]], "65308500": [{"highway": "stop"}, [-122.46201979999964, 37.77920189999997]], "4025608021": [{"highway": "stop"}, [-122.46007730000673, 37.7704167006785]], "65308503": [{"highway": "stop"}, [-122.46523049999963, 37.779055699999965]], "2322612056": [{"highway": "stop"}, [-122.46930549999708, 37.6635175000204]], "65308506": [{"highway": "stop"}, [-122.46630179999964, 37.779006999999964]], "65349472": [{"stop": "all", "highway": "stop"}, [-122.4144673000002, 37.741568699999796]], "65441639": [{"highway": "stop"}, [-122.32015639999997, 37.560268099999604]], "3877631853": [{"highway": "stop"}, [-122.37813380000584, 37.58946360053474]], "4561598018": [{"highway": "stop"}, [-122.45343040000475, 37.73142210067817]], "2327615350": [{"highway": "stop"}, [-122.4229742999971, 37.74059770002038]], "2327615352": [{"highway": "stop"}, [-122.42334489999709, 37.74170320002038]], "65318207": [{"highway": "stop"}, [-122.39167000000005, 37.72685099999981]], "741740414": [{"highway": "stop"}, [-122.50300000000021, 37.72512130000058]], "65394561": [{"highway": "stop"}, [-122.4120591999999, 37.58950309999959]], "310491019": [{"highway": "stop"}, [-122.48310100000036, 37.837862699999675]], "65279893": [{"highway": "stop"}, [-122.39001999999994, 37.71929800000002]], "65279895": [{"highway": "stop"}, [-122.39056399999994, 37.71868800000002]], "904982425": [{"highway": "stop"}, [-122.46882429999968, 37.66148530000012]], "65345867": [{"highway": "stop"}, [-122.47088720000019, 37.75088889999991]], "5005650656": [{"direction": "backward", "highway": "stop"}, [-122.43747840000425, 37.73248030067898]], "3877635398": [{"direction": "forward", "highway": "stop"}, [-122.37054850000584, 37.58776900053475]], "65341350": [{"highway": "stop"}, [-122.38913900000001, 37.71967699999993]], "5987119089": [{"direction": "backward", "highway": "stop"}, [-122.40309510000444, 37.76864200067933]], "3158858111": [{"highway": "stop"}, [-122.47312000000521, 37.80330020050545]], "317126582": [{"highway": "stop"}, [-122.3928933000003, 37.77089489999953]], "2322612151": [{"highway": "stop"}, [-122.45155069999709, 37.638999900020394]], "3877630524": [{"highway": "stop"}, [-122.3817923000058, 37.58706690053476]], "65324985": [{"highway": "stop"}, [-122.37290830000009, 37.826126799999734]], "65324987": [{"highway": "stop"}, [-122.37106830000009, 37.82690559999973]], "1973854140": [{"highway": "stop"}, [-122.42414419999778, 37.75342580001832]], "2847297941": [{"highway": "stop"}, [-122.39020250000478, 37.75774440030506]], "1973854142": [{"highway": "stop"}, [-122.42416119999778, 37.75359890001832]], "65357759": [{"highway": "stop"}, [-122.3914920000001, 37.72391399999977]], "4564819904": [{"highway": "stop"}, [-122.44250590000475, 37.79821170067816]], "4564819905": [{"highway": "stop"}, [-122.44246850000475, 37.79802680067816]], "65357763": [{"highway": "stop"}, [-122.3943115000001, 37.720795499999774]], "65312708": [{"highway": "stop"}, [-122.43715169999976, 37.79688629999981]], "65312712": [{"highway": "stop"}, [-122.44044329999976, 37.79646789999981]], "1973854153": [{"highway": "stop"}, [-122.42429549999778, 37.75502060001832]], "65357770": [{"highway": "stop"}, [-122.3965701000001, 37.71831639999977]], "1973854155": [{"highway": "stop"}, [-122.42395089999779, 37.75030440001832]], "65312716": [{"highway": "stop"}, [-122.44211069999976, 37.796255899999814]], "1973854157": [{"highway": "stop"}, [-122.4242559999978, 37.75349470001832]], "1973854159": [{"highway": "stop"}, [-122.4238221999978, 37.750223100018324]], "1973854161": [{"highway": "stop"}, [-122.4240399999978, 37.753507700018325]], "2615855060": [{"highway": "stop"}, [-122.39650979999709, 37.78167530002051]], "2615855061": [{"highway": "stop"}, [-122.3962844999971, 37.78185330002051]], "65451991": [{"highway": "stop"}, [-122.4690525, 37.650402899999655]], "878794718": [{"highway": "stop"}, [-122.41049549999966, 37.58790480000011]], "4810911712": [{"highway": "stop"}, [-122.40116700000372, 37.721406300679185]], "65343468": [{"highway": "stop"}, [-122.39164800000009, 37.73628799999995]], "65343471": [{"highway": "stop"}, [-122.3922140000001, 37.73566099999995]], "65343473": [{"highway": "stop"}, [-122.3927892000001, 37.73504969999995]], "5987119090": [{"direction": "forward", "highway": "stop"}, [-122.40281150000443, 37.76865890067933]], "2616342867": [{"highway": "stop"}, [-122.4257118999971, 37.739786800020504]], "4036026357": [{"highway": "stop"}, [-122.45711130000636, 37.77103290067851]], "2691865258": [{"highway": "stop"}, [-122.40673189999956, 37.63076480011231]]}